OBJECT_NAME,OBJECT_ID,EPOCH,MEAN_MOTION,ECCENTRICITY,INCLINATION,RA_OF_ASC_NODE,ARG_OF_PERICENTER,MEAN_ANOMALY,EPHEMERIS_TYPE,CLASSIFICATION_TYPE,NORAD_CAT_ID,ELEMENT_SET_NO,REV_AT_EPOCH,BSTAR,MEAN_MOTION_DOT,MEAN_MOTION_DDOT
ONEWEB-0275,2021-060AC,2026-06-19T10:24:01.049472,13.16594648,.00019611,87.9096,228.3297,96.4482,263.6872,0,U,48993,999,23985,.37639797E-4,.27E-6,0
ONEWEB-0276,2021-060AD,2026-06-19T13:01:19.447680,13.16594490,.00019453,87.9097,228.3074,94.2940,265.8413,0,U,48994,999,23988,-.48642217E-4,-.6E-7,0
ONEWEB-0277,2021-060AE,2026-06-19T13:19:34.644576,13.16594564,.00018947,87.9093,228.3136,101.1409,258.9935,0,U,48995,999,23987,.62013117E-4,.37E-6,0
ONEWEB-0278,2021-060AF,2026-06-19T13:05:51.913536,13.16593103,.00022475,87.9097,228.3059,98.5258,261.6128,0,U,48996,999,24000,-.1626735E-4,.7E-7,0
ONEWEB-0279,2021-060AG,2026-06-19T13:17:17.127744,13.16594939,.00017878,87.9098,228.3024,98.3857,261.7477,0,U,48997,999,23993,.28551223E-4,.24E-6,0
ONEWEB-0280,2021-060AH,2026-06-19T13:38:56.296032,13.16594455,.0002202,87.9095,228.3038,106.3089,253.8285,0,U,48998,999,23987,.11204897E-3,.56E-6,0
ONEWEB-0281,2021-060AJ,2026-06-19T13:46:55.285536,13.16595528,.00021222,87.9100,228.2980,97.4391,262.6981,0,U,48999,999,23994,.30024706E-4,.24E-6,0
ONEWEB-0282,2021-060AK,2026-06-19T10:51:21.272256,13.16592829,.00019788,87.9094,228.3304,101.5579,258.5774,0,U,49000,999,23990,.25022774E-3,.109E-5,0
ONEWEB-0283,2021-060AL,2026-06-19T10:35:24.504576,13.16594080,.00018933,87.9093,228.3320,98.2242,261.9104,0,U,49001,999,23991,-.12312159E-4,.8E-7,0
ONEWEB-0284,2021-060AM,2026-06-19T10:26:17.736000,13.16594518,.00022936,87.9095,228.3266,104.0514,256.0872,0,U,49002,999,23989,.47603937E-4,.31E-6,0
ONEWEB-0285,2021-075A,2026-06-19T11:59:47.350176,13.12443263,.00017898,87.8946,350.2019,93.3551,266.7782,0,U,49075,999,23551,.82695293E-3,.31E-5,0
ONEWEB-0286,2021-075B,2026-06-19T13:23:45.741984,13.12444196,.00019841,87.8937,350.2069,86.4107,273.7248,0,U,49076,999,23487,.11673321E-2,.433E-5,0
ONEWEB-0287,2021-075C,2026-06-19T12:29:46.021056,13.17649804,.00022645,87.9133,5.4016,84.4198,275.7192,0,U,49077,999,23393,.29998319E-4,.25E-6,0
ONEWEB-0288,2021-075D,2026-06-19T00:01:19.554528,13.12444227,.00020534,87.8946,350.2944,91.9775,268.1589,0,U,49078,999,23542,-.65378161E-3,-.222E-5,0
ONEWEB-0289,2021-075E,2026-06-19T13:25:27.374304,13.17650214,.00019264,87.9138,5.4107,100.6612,259.4736,0,U,49079,999,23451,-.4159113E-4,-.3E-7,0
ONEWEB-0290,2021-075F,2026-06-19T07:18:44.833248,13.17648645,.00018675,87.9141,5.4334,104.6202,255.5137,0,U,49080,999,23389,-.25871828E-4,.3E-7,0
ONEWEB-0291,2021-075G,2026-06-19T12:24:55.085472,13.17649624,.00022228,87.9135,5.3985,92.1866,267.9521,0,U,49081,999,23391,.20377144E-3,.92E-6,0
ONEWEB-0293,2021-075H,2026-06-19T05:43:57.917856,13.17648742,.00019017,87.9131,5.4572,92.6733,267.4616,0,U,49082,999,23390,-.90566021E-4,-.22E-6,0
ONEWEB-0294,2021-075J,2026-06-19T05:40:25.693536,13.12445116,.00018834,87.8947,350.2514,102.0973,258.0367,0,U,49083,999,23484,-.2197072E-3,-.66E-6,0
ONEWEB-0295,2021-075K,2026-06-19T05:42:45.334944,13.17648859,.00021796,87.9130,5.4614,88.7877,271.3504,0,U,49084,999,23386,.33088846E-4,.26E-6,0
ONEWEB-0296,2021-075L,2026-06-19T12:30:16.687872,13.12441302,.00021321,87.8953,350.2020,93.0882,267.0490,0,U,49085,999,23488,-.11393431E-2,-.397E-5,0
ONEWEB-0297,2021-075M,2026-06-19T11:24:24.706080,13.12445085,.00019141,87.8939,350.2218,90.2535,269.8813,0,U,49086,999,23548,.69656481E-3,.263E-5,0
ONEWEB-0298,2021-075N,2026-06-19T05:49:01.895520,13.17648091,.0001881,87.9131,5.4586,84.2877,275.8469,0,U,49087,999,23389,-.82225746E-4,-.19E-6,0
ONEWEB-0299,2021-075P,2026-06-19T05:51:15.636672,13.17649485,.00020374,87.9141,5.4387,86.0696,274.0668,0,U,49088,999,23387,-.23273621E-3,-.77E-6,0
ONEWEB-0300,2021-075Q,2026-06-19T05:44:04.722720,13.12443662,.0001768,87.8948,350.2484,79.0657,281.0670,0,U,49089,999,23547,-.71997754E-3,-.246E-5,0
ONEWEB-0301,2021-075R,2026-06-19T05:20:54.022272,13.12441902,.00016676,87.8948,350.2499,81.4336,278.6981,0,U,49090,999,23483,-.12527096E-2,-.438E-5,0
ONEWEB-0302,2021-075S,2026-06-19T12:20:31.384032,13.12442840,.00019603,87.8950,350.2037,99.7011,260.4339,0,U,49091,999,23485,-.56871602E-3,-.192E-5,0
ONEWEB-0304,2021-075T,2026-06-19T07:04:09.376608,13.17648803,.00020063,87.9133,5.4509,87.9382,272.1980,0,U,49092,999,23385,-.44545286E-4,-.4E-7,0
ONEWEB-0305,2021-075U,2026-06-19T12:22:28.985664,13.17649075,.00022337,87.9139,5.3915,85.5687,274.5699,0,U,49093,999,23391,.11839545E-3,.59E-6,0
ONEWEB-0308,2021-075V,2026-06-19T12:10:45.894432,13.12442287,.00017862,87.8949,350.1971,91.6642,268.4691,0,U,49094,999,23486,.75208344E-4,.4E-6,0
